{
  "type": "FeatureCollection",
  "features": [
    {
      "type": "Feature",
      "properties": {
        "norad_id": 66555,
        "name": "ELECTRON KICK STAGE R/B",
        "group": "last-30-days",
        "lat": 39.467673815039454,
        "lon": 119.62936254860603,
        "alt_km": 456.6100888982601,
        "timestamp": "2025-12-13T07:35:40.336828+00:00",
        "meta_object_name": "ELECTRON KICK STAGE R/B",
        "meta_object_id": "2025-267B",
        "meta_epoch": "2025-12-12T21:54:01.987200",
        "meta_mean_motion": 15.32821781,
        "meta_eccentricity": 0.00065385,
        "meta_inclination": 42.0199,
        "meta_ra_of_asc_node": 55.8356,
        "meta_arg_of_pericenter": 54.3056,
        "meta_mean_anomaly": 305.8389,
        "meta_ephemeris_type": 0,
        "meta_classification_type": "U",
        "meta_norad_cat_id": 66555,
        "meta_element_set_no": 999,
        "meta_rev_at_epoch": 343,
        "meta_bstar": 0.0010491581,
        "meta_mean_motion_dot": 0.00033906,
        "meta_mean_motion_ddot": 0,
        "tle_line1": "1 66555U 25267B   25346.91252300  .00033906  00000+0  10492-2 0  9999",
        "tle_line2": "2 66555  42.0199  55.8356 0006538  54.3056 305.8389 15.32821781  3435"
      },
      "geometry": {
        "type": "Point",
        "coordinates": [
          119.62936254860603,
          39.467673815039454
        ]
      }
    },
    {
      "type": "Feature",
      "properties": {
        "norad_id": 66557,
        "name": "STARLINK-35699",
        "group": "last-30-days",
        "lat": 42.419074185891986,
        "lon": -163.4869939259892,
        "alt_km": 409.3100144966511,
        "timestamp": "2025-12-13T07:35:40.336848+00:00",
        "meta_object_name": "STARLINK-35699",
        "meta_object_id": "2025-268A",
        "meta_epoch": "2025-12-12T20:00:01.999872",
        "meta_mean_motion": 15.50577695,
        "meta_eccentricity": 0.00014372,
        "meta_inclination": 42.9999,
        "meta_ra_of_asc_node": 120.6533,
        "meta_arg_of_pericenter": 275.5881,
        "meta_mean_anomaly": 346.2771,
        "meta_ephemeris_type": 0,
        "meta_classification_type": "U",
        "meta_norad_cat_id": 66557,
        "meta_element_set_no": 999,
        "meta_rev_at_epoch": 468,
        "meta_bstar": -0.00047797952,
        "meta_mean_motion_dot": -0.0002828,
        "meta_mean_motion_ddot": 0,
        "tle_line1": "1 66557U 25268A   25346.83335648 -.00028280  00000+0 -47798-3 0  9991",
        "tle_line2": "2 66557  42.9999 120.6533 0001437 275.5881 346.2771 15.50577695  4682"
      },
      "geometry": {
        "type": "Point",
        "coordinates": [
          -163.4869939259892,
          42.419074185891986
        ]
      }
    },
    {
      "type": "Feature",
      "properties": {
        "norad_id": 66558,
        "name": "STARLINK-35695",
        "group": "last-30-days",
        "lat": 42.64698989694377,
        "lon": -160.90304666583668,
        "alt_km": 410.55163375103257,
        "timestamp": "2025-12-13T07:35:40.336857+00:00",
        "meta_object_name": "STARLINK-35695",
        "meta_object_id": "2025-268B",
        "meta_epoch": "2025-12-12T20:00:01.999872",
        "meta_mean_motion": 15.50606537,
        "meta_eccentricity": 0.00032071,
        "meta_inclination": 43,
        "meta_ra_of_asc_node": 120.6494,
        "meta_arg_of_pericenter": 268.2851,
        "meta_mean_anomaly": 355.4858,
        "meta_ephemeris_type": 0,
        "meta_classification_type": "U",
        "meta_norad_cat_id": 66558,
        "meta_element_set_no": 999,
        "meta_rev_at_epoch": 468,
        "meta_bstar": -0.0012559852,
        "meta_mean_motion_dot": -0.00073425,
        "meta_mean_motion_ddot": 0,
        "tle_line1": "1 66558U 25268B   25346.83335648 -.00073425  00000+0 -12560-2 0  9991",
        "tle_line2": "2 66558  43.0000 120.6494 0003207 268.2851 355.4858 15.50606537  4683"
      },
      "geometry": {
        "type": "Point",
        "coordinates": [
          -160.90304666583668,
          42.64698989694377
        ]
      }
    },
    {
      "type": "Feature",
      "properties": {
        "norad_id": 66559,
        "name": "STARLINK-35419",
        "group": "last-30-days",
        "lat": 42.81408812022228,
        "lon": -158.34003308597826,
        "alt_km": 409.87234310763415,
        "timestamp": "2025-12-13T07:35:40.336866+00:00",
        "meta_object_name": "STARLINK-35419",
        "meta_object_id": "2025-268C",
        "meta_epoch": "2025-12-12T20:00:01.999872",
        "meta_mean_motion": 15.50584815,
        "meta_eccentricity": 0.00028289,
        "meta_inclination": 42.9999,
        "meta_ra_of_asc_node": 120.6451,
        "meta_arg_of_pericenter": 252.0719,
        "meta_mean_anomaly": 13.5102,
        "meta_ephemeris_type": 0,
        "meta_classification_type": "U",
        "meta_norad_cat_id": 66559,
        "meta_element_set_no": 999,
        "meta_rev_at_epoch": 468,
        "meta_bstar": 0.0013406684,
        "meta_mean_motion_dot": 0.00079131,
        "meta_mean_motion_ddot": 0,
        "tle_line1": "1 66559U 25268C   25346.83335648  .00079131  00000+0  13407-2 0  9991",
        "tle_line2": "2 66559  42.9999 120.6451 0002828 252.0719  13.5102 15.50584815  4682"
      },
      "geometry": {
        "type": "Point",
        "coordinates": [
          -158.34003308597826,
          42.81408812022228
        ]
      }
    },
    {
      "type": "Feature",
      "properties": {
        "norad_id": 66560,
        "name": "STARLINK-35411",
        "group": "last-30-days",
        "lat": 42.928070487530434,
        "lon": -155.62493981621,
        "alt_km": 409.8274756995961,
        "timestamp": "2025-12-13T07:35:40.336876+00:00",
        "meta_object_name": "STARLINK-35411",
        "meta_object_id": "2025-268D",
        "meta_epoch": "2025-12-12T20:00:01.999872",
        "meta_mean_motion": 15.50715423,
        "meta_eccentricity": 0.00018144,
        "meta_inclination": 43,
        "meta_ra_of_asc_node": 120.6399,
        "meta_arg_of_pericenter": 278.3958,
        "meta_mean_anomaly": 349.2418,
        "meta_ephemeris_type": 0,
        "meta_classification_type": "U",
        "meta_norad_cat_id": 66560,
        "meta_element_set_no": 999,
        "meta_rev_at_epoch": 468,
        "meta_bstar": -0.0047410545,
        "meta_mean_motion_dot": -0.00270418,
        "meta_mean_motion_ddot": 0,
        "tle_line1": "1 66560U 25268D   25346.83335648 -.00270418  00000+0 -47411-2 0  9998",
        "tle_line2": "2 66560  43.0000 120.6399 0001814 278.3958 349.2418 15.50715423  4680"
      },
      "geometry": {
        "type": "Point",
        "coordinates": [
          -155.62493981621,
          42.928070487530434
        ]
      }
    },
    {
      "type": "Feature",
      "properties": {
        "norad_id": 66561,
        "name": "STARLINK-35305",
        "group": "last-30-days",
        "lat": 42.96642266293128,
        "lon": -150.45880070528327,
        "alt_km": 409.25881172285335,
        "timestamp": "2025-12-13T07:35:40.336886+00:00",
        "meta_object_name": "STARLINK-35305",
        "meta_object_id": "2025-268E",
        "meta_epoch": "2025-12-12T20:00:01.999872",
        "meta_mean_motion": 15.50629043,
        "meta_eccentricity": 0.00013196,
        "meta_inclination": 43,
        "meta_ra_of_asc_node": 120.6305,
        "meta_arg_of_pericenter": 273.9325,
        "meta_mean_anomaly": 357.4956,
        "meta_ephemeris_type": 0,
        "meta_classification_type": "U",
        "meta_norad_cat_id": 66561,
        "meta_element_set_no": 999,
        "meta_rev_at_epoch": 463,
        "meta_bstar": -0.0017749376,
        "meta_mean_motion_dot": -0.00103289,
        "meta_mean_motion_ddot": 0,
        "tle_line1": "1 66561U 25268E   25346.83335648 -.00103289  00000+0 -17749-2 0  9991",
        "tle_line2": "2 66561  43.0000 120.6305 0001319 273.9325 357.4956 15.50629043  4632"
      },
      "geometry": {
        "type": "Point",
        "coordinates": [
          -150.45880070528327,
          42.96642266293128
        ]
      }
    },
    {
      "type": "Feature",
      "properties": {
        "norad_id": 66562,
        "name": "STARLINK-35579",
        "group": "last-30-days",
        "lat": 42.976225397146045,
        "lon": -153.07916187141544,
        "alt_km": 409.3190753923682,
        "timestamp": "2025-12-13T07:35:40.336894+00:00",
        "meta_object_name": "STARLINK-35579",
        "meta_object_id": "2025-268F",
        "meta_epoch": "2025-12-12T20:00:01.999872",
        "meta_mean_motion": 15.5062804,
        "meta_eccentricity": 0.00014393,
        "meta_inclination": 43.0001,
        "meta_ra_of_asc_node": 120.6351,
        "meta_arg_of_pericenter": 279.4574,
        "meta_mean_anomaly": 350.052,
        "meta_ephemeris_type": 0,
        "meta_classification_type": "U",
        "meta_norad_cat_id": 66562,
        "meta_element_set_no": 999,
        "meta_rev_at_epoch": 468,
        "meta_bstar": -0.0017704834,
        "meta_mean_motion_dot": -0.00103031,
        "meta_mean_motion_ddot": 0,
        "tle_line1": "1 66562U 25268F   25346.83335648 -.00103031  00000+0 -17705-2 0  9999",
        "tle_line2": "2 66562  43.0001 120.6351 0001439 279.4574 350.0520 15.50628040  4682"
      },
      "geometry": {
        "type": "Point",
        "coordinates": [
          -153.07916187141544,
          42.976225397146045
        ]
      }
    }
  ]
}